[{"OBJECT_NAME":"STARLINK-11685 [DTC]","OBJECT_ID":"2025-075E","EPOCH":"2025-09-09T04:07:03.590976","MEAN_MOTION":15.70844354,"ECCENTRICITY":0.00017948,"INCLINATION":43.0013,"RA_OF_ASC_NODE":167.6559,"ARG_OF_PERICENTER":281.9622,"MEAN_ANOMALY":78.1045,"EPHEMERIS_TYPE":0,"CLASSIFICATION_TYPE":"U","NORAD_CAT_ID":63552,"ELEMENT_SET_NO":999,"REV_AT_EPOCH":2470,"BSTAR":0.0014155858,"MEAN_MOTION_DOT":0.00185332,"MEAN_MOTION_DDOT":0},{"OBJECT_NAME":"STARLINK-11697 [DTC]","OBJECT_ID":"2025-075F","EPOCH":"2025-09-09T04:14:41.348544","MEAN_MOTION":15.70996528,"ECCENTRICITY":0.00059252,"INCLINATION":43.0021,"RA_OF_ASC_NODE":167.6983,"ARG_OF_PERICENTER":276.2012,"MEAN_ANOMALY":83.8181,"EPHEMERIS_TYPE":0,"CLASSIFICATION_TYPE":"U","NORAD_CAT_ID":63553,"ELEMENT_SET_NO":999,"REV_AT_EPOCH":2470,"BSTAR":0.00193289,"MEAN_MOTION_DOT":0.00257233,"MEAN_MOTION_DDOT":0},{"OBJECT_NAME":"STARLINK-11680 [DTC]","OBJECT_ID":"2025-075G","EPOCH":"2025-09-09T01:49:48.710208","MEAN_MOTION":15.70972457,"ECCENTRICITY":0.00016477,"INCLINATION":43.0021,"RA_OF_ASC_NODE":168.6769,"ARG_OF_PERICENTER":246.1236,"MEAN_ANOMALY":113.9459,"EPHEMERIS_TYPE":0,"CLASSIFICATION_TYPE":"U","NORAD_CAT_ID":63554,"ELEMENT_SET_NO":999,"REV_AT_EPOCH":2468,"BSTAR":0.0016091738,"MEAN_MOTION_DOT":0.00212577,"MEAN_MOTION_DDOT":0},{"OBJECT_NAME":"STARLINK-11687 [DTC]","OBJECT_ID":"2025-075H","EPOCH":"2025-09-09T01:34:31.111968","MEAN_MOTION":15.71043371,"ECCENTRICITY":0.0001648,"INCLINATION":43.0034,"RA_OF_ASC_NODE":168.5919,"ARG_OF_PERICENTER":260.0897,"MEAN_ANOMALY":99.9785,"EPHEMERIS_TYPE":0,"CLASSIFICATION_TYPE":"U","NORAD_CAT_ID":63555,"ELEMENT_SET_NO":999,"REV_AT_EPOCH":2468,"BSTAR":0.0015464933,"MEAN_MOTION_DOT":0.00204693,"MEAN_MOTION_DDOT":0},{"OBJECT_NAME":"STARLINK-11626 [DTC]","OBJECT_ID":"2025-075J","EPOCH":"2025-09-09T03:44:17.527488","MEAN_MOTION":15.71085244,"ECCENTRICITY":0.00058875,"INCLINATION":42.9991,"RA_OF_ASC_NODE":168.4214,"ARG_OF_PERICENTER":250.5613,"MEAN_ANOMALY":109.4619,"EPHEMERIS_TYPE":0,"CLASSIFICATION_TYPE":"U","NORAD_CAT_ID":63556,"ELEMENT_SET_NO":999,"REV_AT_EPOCH":2469,"BSTAR":0.0020318932,"MEAN_MOTION_DOT":0.00271921,"MEAN_MOTION_DDOT":0},{"OBJECT_NAME":"STARLINK-11668 [DTC]","OBJECT_ID":"2025-075K","EPOCH":"2025-09-08T04:43:17.064192","MEAN_MOTION":15.70921088,"ECCENTRICITY":0.00022479,"INCLINATION":43.0003,"RA_OF_ASC_NODE":174.1271,"ARG_OF_PERICENTER":267.855,"MEAN_ANOMALY":92.206,"EPHEMERIS_TYPE":0,"CLASSIFICATION_TYPE":"U","NORAD_CAT_ID":63557,"ELEMENT_SET_NO":999,"REV_AT_EPOCH":2454,"BSTAR":0.002300325,"MEAN_MOTION_DOT":0.00306922,"MEAN_MOTION_DDOT":0},{"OBJECT_NAME":"STARLINK-11657 [DTC]","OBJECT_ID":"2025-075L","EPOCH":"2025-09-09T03:13:43.482720","MEAN_MOTION":15.70853771,"ECCENTRICITY":0.00018194,"INCLINATION":42.9996,"RA_OF_ASC_NODE":168.2508,"ARG_OF_PERICENTER":268.5578,"MEAN_ANOMALY":91.5081,"EPHEMERIS_TYPE":0,"CLASSIFICATION_TYPE":"U","NORAD_CAT_ID":63558,"ELEMENT_SET_NO":999,"REV_AT_EPOCH":2469,"BSTAR":0.0015658907,"MEAN_MOTION_DOT":0.00205646,"MEAN_MOTION_DDOT":0},{"OBJECT_NAME":"STARLINK-11606 [DTC]","OBJECT_ID":"2025-075M","EPOCH":"2025-09-09T05:30:58.305600","MEAN_MOTION":15.71121117,"ECCENTRICITY":0.00030065,"INCLINATION":42.9983,"RA_OF_ASC_NODE":167.226,"ARG_OF_PERICENTER":229.8023,"MEAN_ANOMALY":130.2582,"EPHEMERIS_TYPE":0,"CLASSIFICATION_TYPE":"U","NORAD_CAT_ID":63559,"ELEMENT_SET_NO":999,"REV_AT_EPOCH":2471,"BSTAR":0.0019863132,"MEAN_MOTION_DOT":0.00265885,"MEAN_MOTION_DDOT":0},{"OBJECT_NAME":"STARLINK-11592 [DTC]","OBJECT_ID":"2025-075N","EPOCH":"2025-09-09T04:22:21.056160","MEAN_MOTION":15.70852765,"ECCENTRICITY":0.00017385,"INCLINATION":43.0001,"RA_OF_ASC_NODE":167.7375,"ARG_OF_PERICENTER":273.1699,"MEAN_ANOMALY":86.8969,"EPHEMERIS_TYPE":0,"CLASSIFICATION_TYPE":"U","NORAD_CAT_ID":63560,"ELEMENT_SET_NO":999,"REV_AT_EPOCH":2470,"BSTAR":0.00095887118,"MEAN_MOTION_DOT":0.00124515,"MEAN_MOTION_DDOT":0},{"OBJECT_NAME":"STARLINK-32953","OBJECT_ID":"2025-075P","EPOCH":"2025-09-09T05:32:44.018592","MEAN_MOTION":15.27586393,"ECCENTRICITY":0.00016713,"INCLINATION":43.0025,"RA_OF_ASC_NODE":215.5839,"ARG_OF_PERICENTER":261.1878,"MEAN_ANOMALY":98.8784,"EPHEMERIS_TYPE":0,"CLASSIFICATION_TYPE":"U","NORAD_CAT_ID":63561,"ELEMENT_SET_NO":999,"REV_AT_EPOCH":2417,"BSTAR":0.00098424669,"MEAN_MOTION_DOT":0.00026927,"MEAN_MOTION_DDOT":0},{"OBJECT_NAME":"STARLINK-32951","OBJECT_ID":"2025-075Q","EPOCH":"2025-09-09T05:27:09.951264","MEAN_MOTION":15.2760269,"ECCENTRICITY":0.0001554,"INCLINATION":43.0027,"RA_OF_ASC_NODE":215.5327,"ARG_OF_PERICENTER":264.5585,"MEAN_ANOMALY":95.5089,"EPHEMERIS_TYPE":0,"CLASSIFICATION_TYPE":"U","NORAD_CAT_ID":63562,"ELEMENT_SET_NO":999,"REV_AT_EPOCH":2418,"BSTAR":0.00076315358,"MEAN_MOTION_DOT":0.00020812,"MEAN_MOTION_DDOT":0},{"OBJECT_NAME":"STARLINK-32958","OBJECT_ID":"2025-075R","EPOCH":"2025-09-09T06:46:32.027232","MEAN_MOTION":15.27597747,"ECCENTRICITY":7.433e-5,"INCLINATION":42.9997,"RA_OF_ASC_NODE":215.1153,"ARG_OF_PERICENTER":248.0516,"MEAN_ANOMALY":112.0257,"EPHEMERIS_TYPE":0,"CLASSIFICATION_TYPE":"U","NORAD_CAT_ID":63563,"ELEMENT_SET_NO":999,"REV_AT_EPOCH":2418,"BSTAR":0.0007676461,"MEAN_MOTION_DOT":0.00020933,"MEAN_MOTION_DDOT":0},{"OBJECT_NAME":"STARLINK-32928","OBJECT_ID":"2025-075S","EPOCH":"2025-09-09T06:22:28.435296","MEAN_MOTION":15.27602013,"ECCENTRICITY":0.00012629,"INCLINATION":42.9984,"RA_OF_ASC_NODE":214.9869,"ARG_OF_PERICENTER":267.9243,"MEAN_ANOMALY":92.1464,"EPHEMERIS_TYPE":0,"CLASSIFICATION_TYPE":"U","NORAD_CAT_ID":63564,"ELEMENT_SET_NO":999,"REV_AT_EPOCH":2419,"BSTAR":0.0007120575,"MEAN_MOTION_DOT":0.00019397,"MEAN_MOTION_DDOT":0},{"OBJECT_NAME":"STARLINK-32687","OBJECT_ID":"2025-075T","EPOCH":"2025-09-09T05:25:19.507872","MEAN_MOTION":15.27594051,"ECCENTRICITY":0.00015716,"INCLINATION":43.0023,"RA_OF_ASC_NODE":215.5212,"ARG_OF_PERICENTER":262.3139,"MEAN_ANOMALY":97.7534,"EPHEMERIS_TYPE":0,"CLASSIFICATION_TYPE":"U","NORAD_CAT_ID":63565,"ELEMENT_SET_NO":999,"REV_AT_EPOCH":2418,"BSTAR":0.00074880279,"MEAN_MOTION_DOT":0.00020409,"MEAN_MOTION_DDOT":0},{"OBJECT_NAME":"STARLINK-32950","OBJECT_ID":"2025-075U","EPOCH":"2025-09-09T06:15:03.066624","MEAN_MOTION":15.27615525,"ECCENTRICITY":0.00012289,"INCLINATION":42.9996,"RA_OF_ASC_NODE":214.8813,"ARG_OF_PERICENTER":248.2152,"MEAN_ANOMALY":111.8569,"EPHEMERIS_TYPE":0,"CLASSIFICATION_TYPE":"U","NORAD_CAT_ID":63566,"ELEMENT_SET_NO":999,"REV_AT_EPOCH":2418,"BSTAR":0.00077454669,"MEAN_MOTION_DOT":0.00021136,"MEAN_MOTION_DDOT":0},{"OBJECT_NAME":"STARLINK-32954","OBJECT_ID":"2025-075V","EPOCH":"2025-09-08T14:52:00.925824","MEAN_MOTION":15.27572873,"ECCENTRICITY":0.0001292,"INCLINATION":43.002,"RA_OF_ASC_NODE":218.7076,"ARG_OF_PERICENTER":261.4852,"MEAN_ANOMALY":98.5853,"EPHEMERIS_TYPE":0,"CLASSIFICATION_TYPE":"U","NORAD_CAT_ID":63567,"ELEMENT_SET_NO":999,"REV_AT_EPOCH":2408,"BSTAR":0.00084361643,"MEAN_MOTION_DOT":0.0002302,"MEAN_MOTION_DDOT":0}]
