STARLINK-11685 [DTC]    
1 63552U 25075E   25252.17156934  .00185332  00000+0  14156-2 0  9992
2 63552  43.0013 167.6559 0001794 281.9622  78.1045 15.70844354 24703
STARLINK-11697 [DTC]    
1 63553U 25075F   25252.17686746  .00257233  00000+0  19329-2 0  9999
2 63553  43.0021 167.6983 0005925 276.2012  83.8181 15.70996528 24709
STARLINK-11680 [DTC]    
1 63554U 25075G   25252.07625822  .00212577  00000+0  16092-2 0  9993
2 63554  43.0021 168.6769 0001647 246.1236 113.9459 15.70972457 24689
STARLINK-11687 [DTC]    
1 63555U 25075H   25252.06563787  .00204693  00000+0  15465-2 0  9997
2 63555  43.0034 168.5919 0001648 260.0897  99.9785 15.71043371 24689
STARLINK-11626 [DTC]    
1 63556U 25075J   25252.15575842  .00271921  00000+0  20319-2 0  9995
2 63556  42.9991 168.4214 0005887 250.5613 109.4619 15.71085244 24695
STARLINK-11668 [DTC]    
1 63557U 25075K   25251.19672528  .00306922  00000+0  23003-2 0  9991
2 63557  43.0003 174.1271 0002247 267.8550  92.2060 15.70921088 24544
STARLINK-11657 [DTC]    
1 63558U 25075L   25252.13453105  .00205646  00000+0  15659-2 0  9994
2 63558  42.9996 168.2508 0001819 268.5578  91.5081 15.70853771 24697
STARLINK-11606 [DTC]    
1 63559U 25075M   25252.22984150  .00265885  00000+0  19863-2 0  9996
2 63559  42.9983 167.2260 0003006 229.8023 130.2582 15.71121117 24716
STARLINK-11592 [DTC]    
1 63560U 25075N   25252.18218815  .00124515  00000+0  95887-3 0  9996
2 63560  43.0001 167.7375 0001738 273.1699  86.8969 15.70852765 24707
STARLINK-32953          
1 63561U 25075P   25252.23106503  .00026927  00000+0  98425-3 0  9992
2 63561  43.0025 215.5839 0001671 261.1878  98.8784 15.27586393 24175
STARLINK-32951          
1 63562U 25075Q   25252.22719851  .00020812  00000+0  76315-3 0  9999
2 63562  43.0027 215.5327 0001554 264.5585  95.5089 15.27602690 24184
STARLINK-32958          
1 63563U 25075R   25252.28231513  .00020933  00000+0  76765-3 0  9993
2 63563  42.9997 215.1153 0000743 248.0516 112.0257 15.27597747 24180
STARLINK-32928          
1 63564U 25075S   25252.26560689  .00019397  00000+0  71206-3 0  9998
2 63564  42.9984 214.9869 0001262 267.9243  92.1464 15.27602013 24194
STARLINK-32687          
1 63565U 25075T   25252.22592023  .00020409  00000+0  74880-3 0  9999
2 63565  43.0023 215.5212 0001571 262.3139  97.7534 15.27594051 24186
STARLINK-32950          
1 63566U 25075U   25252.26045216  .00021136  00000+0  77455-3 0  9990
2 63566  42.9996 214.8813 0001228 248.2152 111.8569 15.27615525 24186
STARLINK-32954          
1 63567U 25075V   25251.61945516  .00023020  00000+0  84362-3 0  9990
2 63567  43.0020 218.7076 0001292 261.4852  98.5853 15.27572873 24080
